[{"OBJECT_NAME":"STARLINK-6046","OBJECT_ID":"2023-078AB","EPOCH":"2026-03-09T22:30:25.453440","MEAN_MOTION":14.98325377,"ECCENTRICITY":0.00026049,"INCLINATION":70.001,"RA_OF_ASC_NODE":343.9855,"ARG_OF_PERICENTER":276.335,"MEAN_ANOMALY":83.7513,"EPHEMERIS_TYPE":0,"CLASSIFICATION_TYPE":"U","NORAD_CAT_ID":56792,"ELEMENT_SET_NO":999,"REV_AT_EPOCH":15271,"BSTAR":3.1778489e-5,"MEAN_MOTION_DOT":2.86e-6,"MEAN_MOTION_DDOT":0},{"OBJECT_NAME":"MEGSAT-1","OBJECT_ID":"2000-057B","EPOCH":"2026-03-09T22:47:17.292480","MEAN_MOTION":15.04862037,"ECCENTRICITY":0.0038022,"INCLINATION":64.552,"RA_OF_ASC_NODE":26.971,"ARG_OF_PERICENTER":294.4401,"MEAN_ANOMALY":65.2751,"EPHEMERIS_TYPE":0,"CLASSIFICATION_TYPE":"U","NORAD_CAT_ID":26546,"ELEMENT_SET_NO":999,"REV_AT_EPOCH":38272,"BSTAR":0.00040228449,"MEAN_MOTION_DOT":5.624e-5,"MEAN_MOTION_DDOT":0}]
